{"type": "FeatureCollection", "features": [ {"type": "Feature", "properties": {"norad_id": 29843, "name": "FENGYUN 1C DEB", "group": "fengyun-1c-debris", "lat": -3.3323878662794426, "lon": 1.9232169426229209, "alt_km": 855.5513728844508, "timestamp": "2025-12-10T04:57:29.889894+00:00", "meta": {"OBJECT_NAME": "FENGYUN 1C DEB", "OBJECT_ID": "1999-025EM", "EPOCH": "2025-12-09T11:32:52.770048", "MEAN_MOTION": 14.28557132, "ECCENTRICITY": 0.01918669, "INCLINATION": 99.0375, "RA_OF_ASC_NODE": 181.7027, "ARG_OF_PERICENTER": 300.2005, "MEAN_ANOMALY": 116.4173, "EPHEMERIS_TYPE": 0, "CLASSIFICATION_TYPE": "U", "NORAD_CAT_ID": 29843, "ELEMENT_SET_NO": 999, "REV_AT_EPOCH": 98235, "BSTAR": 0.00032459546, "MEAN_MOTION_DOT": 9.38e-06, "MEAN_MOTION_DDOT": 0}, "tle": {"line1": "1 29843U 99025EM  25343.48116632  .00000938  00000+0  32460-3 0  9996", "line2": "2 29843  99.0375 181.7027 0191866 300.2005 116.4173 14.28557132982356"}}, "geometry": {"type": "Point", "coordinates": [1.9232169426229209, -3.3323878662794426]}}, {"type": "Feature", "properties": {"norad_id": 29844, "name": "FENGYUN 1C DEB", "group": "fengyun-1c-debris", "lat": -17.514039259250808, "lon": 62.6259759503749, "alt_km": 679.108633696289, "timestamp": "2025-12-10T04:57:29.889905+00:00", "meta": {"OBJECT_NAME": "FENGYUN 1C DEB", "OBJECT_ID": "1999-025EN", "EPOCH": "2025-12-09T16:18:13.372416", "MEAN_MOTION": 14.31971925, "ECCENTRICITY": 0.0167918, "INCLINATION": 98.9359, "RA_OF_ASC_NODE": 244.9289, "ARG_OF_PERICENTER": 176.0112, "MEAN_ANOMALY": 184.2454, "EPHEMERIS_TYPE": 0, "CLASSIFICATION_TYPE": "U", "NORAD_CAT_ID": 29844, "ELEMENT_SET_NO": 999, "REV_AT_EPOCH": 98297, "BSTAR": 0.00067697, "MEAN_MOTION_DOT": 2.071e-05, "MEAN_MOTION_DDOT": 0}, "tle": {"line1": "1 29844U 99025EN  25343.67932144  .00002071  00000+0  67697-3 0  9992", "line2": "2 29844  98.9359 244.9289 0167918 176.0112 184.2454 14.31971925982975"}}, "geometry": {"type": "Point", "coordinates": [62.6259759503749, -17.514039259250808]}}, {"type": "Feature", "properties": {"norad_id": 29845, "name": "FENGYUN 1C DEB", "group": "fengyun-1c-debris", "lat": 40.9413121786207, "lon": 172.09143436496467, "alt_km": 744.3902244632727, "timestamp": "2025-12-10T04:57:29.889915+00:00", "meta": {"OBJECT_NAME": "FENGYUN 1C DEB", "OBJECT_ID": "1999-025EP", "EPOCH": "2025-12-09T06:31:11.111232", "MEAN_MOTION": 14.26469471, "ECCENTRICITY": 0.0077775, "INCLINATION": 98.5218, "RA_OF_ASC_NODE": 343.7079, "ARG_OF_PERICENTER": 141.2656, "MEAN_ANOMALY": 238.698, "EPHEMERIS_TYPE": 0, "CLASSIFICATION_TYPE": "U", "NORAD_CAT_ID": 29845, "ELEMENT_SET_NO": 999, "REV_AT_EPOCH": 98060, "BSTAR": 0.0009079, "MEAN_MOTION_DOT": 2.215e-05, "MEAN_MOTION_DDOT": 0}, "tle": {"line1": "1 29845U 99025EP  25343.27165638  .00002215  00000+0  90790-3 0  9995", "line2": "2 29845  98.5218 343.7079 0077775 141.2656 238.6980 14.26469471980607"}}, "geometry": {"type": "Point", "coordinates": [172.09143436496467, 40.9413121786207]}}, {"type": "Feature", "properties": {"norad_id": 29846, "name": "FENGYUN 1C DEB", "group": "fengyun-1c-debris", "lat": -54.4568707617043, "lon": -166.22592976428768, "alt_km": 820.6897718205419, "timestamp": "2025-12-10T04:57:29.889926+00:00", "meta": {"OBJECT_NAME": "FENGYUN 1C DEB", "OBJECT_ID": "1999-025EQ", "EPOCH": "2025-12-09T15:01:32.881728", "MEAN_MOTION": 14.19089398, "ECCENTRICITY": 0.0083992, "INCLINATION": 98.6556, "RA_OF_ASC_NODE": 25.5178, "ARG_OF_PERICENTER": 313.38, "MEAN_ANOMALY": 198.8263, "EPHEMERIS_TYPE": 0, "CLASSIFICATION_TYPE": "U", "NORAD_CAT_ID": 29846, "ELEMENT_SET_NO": 999, "REV_AT_EPOCH": 97815, "BSTAR": 0.00023525, "MEAN_MOTION_DOT": 4.66e-06, "MEAN_MOTION_DDOT": 0}, "tle": {"line1": "1 29846U 99025EQ  25343.62607502  .00000466  00000+0  23525-3 0  9994", "line2": "2 29846  98.6556  25.5178 0083992 313.3800 198.8263 14.19089398978156"}}, "geometry": {"type": "Point", "coordinates": [-166.22592976428768, -54.4568707617043]}}, {"type": "Feature", "properties": {"norad_id": 29847, "name": "FENGYUN 1C DEB", "group": "fengyun-1c-debris", "lat": -80.8843656200969, "lon": 82.53172994753642, "alt_km": 936.4974743698376, "timestamp": "2025-12-10T04:57:29.889936+00:00", "meta": {"OBJECT_NAME": "FENGYUN 1C DEB", "OBJECT_ID": "1999-025ER", "EPOCH": "2025-12-09T18:16:28.225920", "MEAN_MOTION": 14.02994174, "ECCENTRICITY": 0.00854, "INCLINATION": 98.9023, "RA_OF_ASC_NODE": 339.7368, "ARG_OF_PERICENTER": 47.121, "MEAN_ANOMALY": 134.4354, "EPHEMERIS_TYPE": 0, "CLASSIFICATION_TYPE": "U", "NORAD_CAT_ID": 29847, "ELEMENT_SET_NO": 999, "REV_AT_EPOCH": 96693, "BSTAR": 0.0003688, "MEAN_MOTION_DOT": 5.48e-06, "MEAN_MOTION_DDOT": 0}, "tle": {"line1": "1 29847U 99025ER  25343.76143780  .00000548  00000+0  36880-3 0  9992", "line2": "2 29847  98.9023 339.7368 0085400  47.1210 134.4354 14.02994174966932"}}, "geometry": {"type": "Point", "coordinates": [82.53172994753642, -80.8843656200969]}}, {"type": "Feature", "properties": {"norad_id": 29848, "name": "FENGYUN 1C DEB", "group": "fengyun-1c-debris", "lat": -81.12446499138005, "lon": -80.76667783534114, "alt_km": 757.0077611141069, "timestamp": "2025-12-10T04:57:29.889947+00:00", "meta": {"OBJECT_NAME": "FENGYUN 1C DEB", "OBJECT_ID": "1999-025ES", "EPOCH": "2025-12-09T12:47:03.227136", "MEAN_MOTION": 14.20537618, "ECCENTRICITY": 0.0117308, "INCLINATION": 98.2482, "RA_OF_ASC_NODE": 210.3424, "ARG_OF_PERICENTER": 304.6503, "MEAN_ANOMALY": 124.8666, "EPHEMERIS_TYPE": 0, "CLASSIFICATION_TYPE": "U", "NORAD_CAT_ID": 29848, "ELEMENT_SET_NO": 999, "REV_AT_EPOCH": 97072, "BSTAR": 0.0022680776, "MEAN_MOTION_DOT": 5.185e-05, "MEAN_MOTION_DDOT": 0}, "tle": {"line1": "1 29848U 99025ES  25343.53267624  .00005185  00000+0  22681-2 0  9997", "line2": "2 29848  98.2482 210.3424 0117308 304.6503 124.8666 14.20537618970728"}}, "geometry": {"type": "Point", "coordinates": [-80.76667783534114, -81.12446499138005]}}, {"type": "Feature", "properties": {"norad_id": 29849, "name": "FENGYUN 1C DEB", "group": "fengyun-1c-debris", "lat": -78.21169781625223, "lon": -160.8960902001077, "alt_km": 934.5336027699241, "timestamp": "2025-12-10T04:57:29.889958+00:00", "meta": {"OBJECT_NAME": "FENGYUN 1C DEB", "OBJECT_ID": "1999-025ET", "EPOCH": "2025-12-09T18:10:37.263072", "MEAN_MOTION": 14.04879701, "ECCENTRICITY": 0.0080706, "INCLINATION": 99.0112, "RA_OF_ASC_NODE": 68.1534, "ARG_OF_PERICENTER": 53.0137, "MEAN_ANOMALY": 99.105, "EPHEMERIS_TYPE": 0, "CLASSIFICATION_TYPE": "U", "NORAD_CAT_ID": 29849, "ELEMENT_SET_NO": 999, "REV_AT_EPOCH": 96328, "BSTAR": 0.0015352, "MEAN_MOTION_DOT": 2.496e-05, "MEAN_MOTION_DDOT": 0}, "tle": {"line1": "1 29849U 99025ET  25343.75737573  .00002496  00000+0  15352-2 0  9996", "line2": "2 29849  99.0112  68.1534 0080706  53.0137  99.1050 14.04879701963286"}}, "geometry": {"type": "Point", "coordinates": [-160.8960902001077, -78.21169781625223]}}, {"type": "Feature", "properties": {"norad_id": 29850, "name": "FENGYUN 1C DEB", "group": "fengyun-1c-debris", "lat": -66.41273848742762, "lon": 72.03734922032216, "alt_km": 852.2491687244583, "timestamp": "2025-12-10T04:57:29.889969+00:00", "meta": {"OBJECT_NAME": "FENGYUN 1C DEB", "OBJECT_ID": "1999-025EU", "EPOCH": "2025-12-09T09:30:25.486848", "MEAN_MOTION": 13.99839562, "ECCENTRICITY": 0.01027072, "INCLINATION": 98.1228, "RA_OF_ASC_NODE": 270.4098, "ARG_OF_PERICENTER": 299.1691, "MEAN_ANOMALY": 187.4493, "EPHEMERIS_TYPE": 0, "CLASSIFICATION_TYPE": "U", "NORAD_CAT_ID": 29850, "ELEMENT_SET_NO": 999, "REV_AT_EPOCH": 95973, "BSTAR": 0.0022177186, "MEAN_MOTION_DOT": 3.367e-05, "MEAN_MOTION_DDOT": 0}, "tle": {"line1": "1 29850U 99025EU  25343.39612832  .00003367  00000+0  22177-2 0  9999", "line2": "2 29850  98.1228 270.4098 0102707 299.1691 187.4493 13.99839562959734"}}, "geometry": {"type": "Point", "coordinates": [72.03734922032216, -66.41273848742762]}}, {"type": "Feature", "properties": {"norad_id": 29851, "name": "FENGYUN 1C DEB", "group": "fengyun-1c-debris", "lat": -14.718796388209737, "lon": 27.625910364378104, "alt_km": 991.636225227051, "timestamp": "2025-12-10T04:57:29.889980+00:00", "meta": {"OBJECT_NAME": "FENGYUN 1C DEB", "OBJECT_ID": "1999-025EV", "EPOCH": "2025-12-09T08:31:01.055712", "MEAN_MOTION": 13.83595144, "ECCENTRICITY": 0.01419979, "INCLINATION": 99.5847, "RA_OF_ASC_NODE": 24.2141, "ARG_OF_PERICENTER": 236.4716, "MEAN_ANOMALY": 187.0494, "EPHEMERIS_TYPE": 0, "CLASSIFICATION_TYPE": "U", "NORAD_CAT_ID": 29851, "ELEMENT_SET_NO": 999, "REV_AT_EPOCH": 95320, "BSTAR": 0.00055060012, "MEAN_MOTION_DOT": 6.1e-06, "MEAN_MOTION_DDOT": 0}, "tle": {"line1": "1 29851U 99025EV  25343.35487333  .00000610  00000+0  55060-3 0  9998", "line2": "2 29851  99.5847  24.2141 0141997 236.4716 187.0494 13.83595144953208"}}, "geometry": {"type": "Point", "coordinates": [27.625910364378104, -14.718796388209737]}}, {"type": "Feature", "properties": {"norad_id": 29852, "name": "FENGYUN 1C DEB", "group": "fengyun-1c-debris", "lat": -36.82737864707256, "lon": 1.0042836665171049, "alt_km": 970.659051548867, "timestamp": "2025-12-10T04:57:29.889990+00:00", "meta": {"OBJECT_NAME": "FENGYUN 1C DEB", "OBJECT_ID": "1999-025EW", "EPOCH": "2025-12-09T19:44:13.766784", "MEAN_MOTION": 14.07043977, "ECCENTRICITY": 0.0135176, "INCLINATION": 99.3715, "RA_OF_ASC_NODE": 353.5025, "ARG_OF_PERICENTER": 157.9926, "MEAN_ANOMALY": 19.1855, "EPHEMERIS_TYPE": 0, "CLASSIFICATION_TYPE": "U", "NORAD_CAT_ID": 29852, "ELEMENT_SET_NO": 999, "REV_AT_EPOCH": 95943, "BSTAR": 0.0022754, "MEAN_MOTION_DOT": 4.086e-05, "MEAN_MOTION_DDOT": 0}, "tle": {"line1": "1 29852U 99025EW  25343.82238156  .00004086  00000+0  22754-2 0  9992", "line2": "2 29852  99.3715 353.5025 0135176 157.9926  19.1855 14.07043977959438"}}, "geometry": {"type": "Point", "coordinates": [1.0042836665171049, -36.82737864707256]}}]}